ALOS (DAICHI)           
1 28931U 06002A   25351.73419158  .00001110  00000+0  19545-3 0  9994
2 28931  98.1098 303.1864 0001361 113.5739 246.5610 14.69501788 61443
H-2A R/B                
1 28932U 06002B   26003.98035809  .00013877  00000+0  71695-3 0  9991
2 28932  98.2331 145.5556 0054807 101.3832 259.3562 15.15098873 84635
RESURS-DK 1             
1 29228U 06021A   26004.18787192  .00004455  00000+0  26257-3 0  9999
2 29228  69.9342  43.8176 0006927 240.2155 119.8322 15.12319009 77775
CZ-4B R/B               
1 29507U 06046C   26004.07900108  .00008223  00000+0  42326-3 0  9990
2 29507  97.5698  49.1566 0034921 129.9451 230.4859 15.16144413 50253
CZ-2C R/B               
1 31114U 07010B   26004.19300859  .00000269  00000+0  14232-3 0  9996
2 31114  98.3974 120.7142 0059878 121.3106 239.3952 14.20220919970560
COSMO-SKYMED 1          
1 31598U 07023A   26004.19724517  .00006303  00000+0  56740-3 0  9992
2 31598  97.8828 194.7463 0001417  87.9436 272.1947 14.95970934  5260
COSMOS 2428             
1 31792U 07029A   26004.18120600  .00000333  00000+0  20440-3 0  9991
2 31792  70.9382 338.7613 0004966 352.3466   7.7579 14.12901933954981
SL-16 R/B               
1 31793U 07029B   26004.16225947  .00000116  00000+0  84676-4 0  9991
2 31793  70.9775 308.0237 0002129 271.7025 185.7171 14.14825410956247
KORONAS-FOTON           
1 33504U 09003A   26004.02107800  .00014082  00000+0  33201-3 0  9993
2 33504  82.4313 343.0083 0012486  39.3072 320.9078 15.41686146935776
CZ-2C R/B               
1 37731U 11030B   26003.88150565  .00002326  00000+0  30037-3 0  9993
2 37731  97.8441 322.5023 0052158 199.7617 173.3301 14.80982604780504
H-2A R/B                
1 38341U 12025E   26004.00169062  .00004195  00000+0  38592-3 0  9993
2 38341  98.4631 325.9537 0045175 162.7363 197.5403 14.94614564738557
SHIJIAN-16 (SJ-16)      
1 39358U 13057A   26004.19925810  .00003932  00000+0  38847-3 0  9990
2 39358  74.9747 307.1547 0018005 267.8577  92.0550 14.92093709661885
