CCSDS_OMM_VERS = 2.0
CREATION_DATE  = 
ORIGINATOR     = 

OBJECT_NAME    = ALOS (DAICHI)
OBJECT_ID      = 2006-002A
CENTER_NAME    = EARTH
REF_FRAME      = TEME
TIME_SYSTEM    = UTC
MEAN_ELEMENT_THEORY = SGP/SGP4

EPOCH          = 2025-12-17T17:37:14.152512
MEAN_MOTION    = 14.69501788
ECCENTRICITY   = .00013612
INCLINATION    = 98.1098
RA_OF_ASC_NODE = 303.1864
ARG_OF_PERICENTER = 113.5739
MEAN_ANOMALY   = 246.5610

EPHEMERIS_TYPE = 0
CLASSIFICATION_TYPE = U
NORAD_CAT_ID   = 28931
ELEMENT_SET_NO = 999
REV_AT_EPOCH   = 6144
BSTAR          = .19545051E-3
MEAN_MOTION_DOT = .111E-4
MEAN_MOTION_DDOT = 0

CCSDS_OMM_VERS = 2.0
CREATION_DATE  = 
ORIGINATOR     = 

OBJECT_NAME    = H-2A R/B
OBJECT_ID      = 2006-002B
CENTER_NAME    = EARTH
REF_FRAME      = TEME
TIME_SYSTEM    = UTC
MEAN_ELEMENT_THEORY = SGP/SGP4

EPOCH          = 2026-01-03T23:31:42.938976
MEAN_MOTION    = 15.15098873
ECCENTRICITY   = .0054807
INCLINATION    = 98.2331
RA_OF_ASC_NODE = 145.5556
ARG_OF_PERICENTER = 101.3832
MEAN_ANOMALY   = 259.3562

EPHEMERIS_TYPE = 0
CLASSIFICATION_TYPE = U
NORAD_CAT_ID   = 28932
ELEMENT_SET_NO = 999
REV_AT_EPOCH   = 8463
BSTAR          = .71695E-3
MEAN_MOTION_DOT = .13877E-3
MEAN_MOTION_DDOT = 0

CCSDS_OMM_VERS = 2.0
CREATION_DATE  = 
ORIGINATOR     = 

OBJECT_NAME    = RESURS-DK 1
OBJECT_ID      = 2006-021A
CENTER_NAME    = EARTH
REF_FRAME      = TEME
TIME_SYSTEM    = UTC
MEAN_ELEMENT_THEORY = SGP/SGP4

EPOCH          = 2026-01-04T04:30:32.133888
MEAN_MOTION    = 15.12319009
ECCENTRICITY   = .0006927
INCLINATION    = 69.9342
RA_OF_ASC_NODE = 43.8176
ARG_OF_PERICENTER = 240.2155
MEAN_ANOMALY   = 119.8322

EPHEMERIS_TYPE = 0
CLASSIFICATION_TYPE = U
NORAD_CAT_ID   = 29228
ELEMENT_SET_NO = 999
REV_AT_EPOCH   = 7777
BSTAR          = .26257E-3
MEAN_MOTION_DOT = .4455E-4
MEAN_MOTION_DDOT = 0

CCSDS_OMM_VERS = 2.0
CREATION_DATE  = 
ORIGINATOR     = 

OBJECT_NAME    = CZ-4B R/B
OBJECT_ID      = 2006-046C
CENTER_NAME    = EARTH
REF_FRAME      = TEME
TIME_SYSTEM    = UTC
MEAN_ELEMENT_THEORY = SGP/SGP4

EPOCH          = 2026-01-04T01:53:45.693312
MEAN_MOTION    = 15.16144413
ECCENTRICITY   = .0034921
INCLINATION    = 97.5698
RA_OF_ASC_NODE = 49.1566
ARG_OF_PERICENTER = 129.9451
MEAN_ANOMALY   = 230.4859

EPHEMERIS_TYPE = 0
CLASSIFICATION_TYPE = U
NORAD_CAT_ID   = 29507
ELEMENT_SET_NO = 999
REV_AT_EPOCH   = 5025
BSTAR          = .42326E-3
MEAN_MOTION_DOT = .8223E-4
MEAN_MOTION_DDOT = 0

CCSDS_OMM_VERS = 2.0
CREATION_DATE  = 
ORIGINATOR     = 

OBJECT_NAME    = CZ-2C R/B
OBJECT_ID      = 2007-010B
CENTER_NAME    = EARTH
REF_FRAME      = TEME
TIME_SYSTEM    = UTC
MEAN_ELEMENT_THEORY = SGP/SGP4

EPOCH          = 2026-01-04T04:37:55.942176
MEAN_MOTION    = 14.20220919
ECCENTRICITY   = .0059878
INCLINATION    = 98.3974
RA_OF_ASC_NODE = 120.7142
ARG_OF_PERICENTER = 121.3106
MEAN_ANOMALY   = 239.3952

EPHEMERIS_TYPE = 0
CLASSIFICATION_TYPE = U
NORAD_CAT_ID   = 31114
ELEMENT_SET_NO = 999
REV_AT_EPOCH   = 97056
BSTAR          = .14232E-3
MEAN_MOTION_DOT = .269E-5
MEAN_MOTION_DDOT = 0

CCSDS_OMM_VERS = 2.0
CREATION_DATE  = 
ORIGINATOR     = 

OBJECT_NAME    = COSMO-SKYMED 1
OBJECT_ID      = 2007-023A
CENTER_NAME    = EARTH
REF_FRAME      = TEME
TIME_SYSTEM    = UTC
MEAN_ELEMENT_THEORY = SGP/SGP4

EPOCH          = 2026-01-04T04:44:01.982688
MEAN_MOTION    = 14.95970934
ECCENTRICITY   = .0001417
INCLINATION    = 97.8828
RA_OF_ASC_NODE = 194.7463
ARG_OF_PERICENTER = 87.9436
MEAN_ANOMALY   = 272.1947

EPHEMERIS_TYPE = 0
CLASSIFICATION_TYPE = U
NORAD_CAT_ID   = 31598
ELEMENT_SET_NO = 999
REV_AT_EPOCH   = 526
BSTAR          = .5674E-3
MEAN_MOTION_DOT = .6303E-4
MEAN_MOTION_DDOT = 0

CCSDS_OMM_VERS = 2.0
CREATION_DATE  = 
ORIGINATOR     = 

OBJECT_NAME    = COSMOS 2428
OBJECT_ID      = 2007-029A
CENTER_NAME    = EARTH
REF_FRAME      = TEME
TIME_SYSTEM    = UTC
MEAN_ELEMENT_THEORY = SGP/SGP4

EPOCH          = 2026-01-04T04:20:56.198400
MEAN_MOTION    = 14.12901933
ECCENTRICITY   = .0004966
INCLINATION    = 70.9382
RA_OF_ASC_NODE = 338.7613
ARG_OF_PERICENTER = 352.3466
MEAN_ANOMALY   = 7.7579

EPHEMERIS_TYPE = 0
CLASSIFICATION_TYPE = U
NORAD_CAT_ID   = 31792
ELEMENT_SET_NO = 999
REV_AT_EPOCH   = 95498
BSTAR          = .2044E-3
MEAN_MOTION_DOT = .333E-5
MEAN_MOTION_DDOT = 0

CCSDS_OMM_VERS = 2.0
CREATION_DATE  = 
ORIGINATOR     = 

OBJECT_NAME    = SL-16 R/B
OBJECT_ID      = 2007-029B
CENTER_NAME    = EARTH
REF_FRAME      = TEME
TIME_SYSTEM    = UTC
MEAN_ELEMENT_THEORY = SGP/SGP4

EPOCH          = 2026-01-04T03:53:39.218208
MEAN_MOTION    = 14.14825410
ECCENTRICITY   = .0002129
INCLINATION    = 70.9775
RA_OF_ASC_NODE = 308.0237
ARG_OF_PERICENTER = 271.7025
MEAN_ANOMALY   = 185.7171

EPHEMERIS_TYPE = 0
CLASSIFICATION_TYPE = U
NORAD_CAT_ID   = 31793
ELEMENT_SET_NO = 999
REV_AT_EPOCH   = 95624
BSTAR          = .84676E-4
MEAN_MOTION_DOT = .116E-5
MEAN_MOTION_DDOT = 0

CCSDS_OMM_VERS = 2.0
CREATION_DATE  = 
ORIGINATOR     = 

OBJECT_NAME    = KORONAS-FOTON
OBJECT_ID      = 2009-003A
CENTER_NAME    = EARTH
REF_FRAME      = TEME
TIME_SYSTEM    = UTC
MEAN_ELEMENT_THEORY = SGP/SGP4

EPOCH          = 2026-01-04T00:30:21.139200
MEAN_MOTION    = 15.41686146
ECCENTRICITY   = .0012486
INCLINATION    = 82.4313
RA_OF_ASC_NODE = 343.0083
ARG_OF_PERICENTER = 39.3072
MEAN_ANOMALY   = 320.9078

EPHEMERIS_TYPE = 0
CLASSIFICATION_TYPE = U
NORAD_CAT_ID   = 33504
ELEMENT_SET_NO = 999
REV_AT_EPOCH   = 93577
BSTAR          = .33201E-3
MEAN_MOTION_DOT = .14082E-3
MEAN_MOTION_DDOT = 0

CCSDS_OMM_VERS = 2.0
CREATION_DATE  = 
ORIGINATOR     = 

OBJECT_NAME    = CZ-2C R/B
OBJECT_ID      = 2011-030B
CENTER_NAME    = EARTH
REF_FRAME      = TEME
TIME_SYSTEM    = UTC
MEAN_ELEMENT_THEORY = SGP/SGP4

EPOCH          = 2026-01-03T21:09:22.088160
MEAN_MOTION    = 14.80982604
ECCENTRICITY   = .00521587
INCLINATION    = 97.8441
RA_OF_ASC_NODE = 322.5023
ARG_OF_PERICENTER = 199.7617
MEAN_ANOMALY   = 173.3301

EPHEMERIS_TYPE = 0
CLASSIFICATION_TYPE = U
NORAD_CAT_ID   = 37731
ELEMENT_SET_NO = 999
REV_AT_EPOCH   = 78050
BSTAR          = .30037358E-3
MEAN_MOTION_DOT = .2326E-4
MEAN_MOTION_DDOT = 0

CCSDS_OMM_VERS = 2.0
CREATION_DATE  = 
ORIGINATOR     = 

OBJECT_NAME    = H-2A R/B
OBJECT_ID      = 2012-025E
CENTER_NAME    = EARTH
REF_FRAME      = TEME
TIME_SYSTEM    = UTC
MEAN_ELEMENT_THEORY = SGP/SGP4

EPOCH          = 2026-01-04T00:02:26.069568
MEAN_MOTION    = 14.94614564
ECCENTRICITY   = .0045175
INCLINATION    = 98.4631
RA_OF_ASC_NODE = 325.9537
ARG_OF_PERICENTER = 162.7363
MEAN_ANOMALY   = 197.5403

EPHEMERIS_TYPE = 0
CLASSIFICATION_TYPE = U
NORAD_CAT_ID   = 38341
ELEMENT_SET_NO = 999
REV_AT_EPOCH   = 73855
BSTAR          = .38592E-3
MEAN_MOTION_DOT = .4195E-4
MEAN_MOTION_DDOT = 0

CCSDS_OMM_VERS = 2.0
CREATION_DATE  = 
ORIGINATOR     = 

OBJECT_NAME    = SHIJIAN-16 (SJ-16)
OBJECT_ID      = 2013-057A
CENTER_NAME    = EARTH
REF_FRAME      = TEME
TIME_SYSTEM    = UTC
MEAN_ELEMENT_THEORY = SGP/SGP4

EPOCH          = 2026-01-04T04:46:55.899840
MEAN_MOTION    = 14.92093709
ECCENTRICITY   = .0018005
INCLINATION    = 74.9747
RA_OF_ASC_NODE = 307.1547
ARG_OF_PERICENTER = 267.8577
MEAN_ANOMALY   = 92.0550

EPHEMERIS_TYPE = 0
CLASSIFICATION_TYPE = U
NORAD_CAT_ID   = 39358
ELEMENT_SET_NO = 999
REV_AT_EPOCH   = 66188
BSTAR          = .38847E-3
MEAN_MOTION_DOT = .3932E-4
MEAN_MOTION_DDOT = 0

